{
  "type": "FeatureCollection",
  "features": [
    {
      "type": "Feature",
      "properties": {
        "norad_id": 37921,
        "name": "FENGYUN 1C DEB",
        "group": "fengyun-1c-debris",
        "lat": -71.43656122041979,
        "lon": 45.99629355936211,
        "alt_km": 975.463289104192,
        "timestamp": "2025-12-02T10:50:47.563891+00:00",
        "meta_object_name": "FENGYUN 1C DEB",
        "meta_object_id": "1999-025ENW",
        "meta_epoch": "2025-12-01T09:23:12.088032",
        "meta_mean_motion": 13.95144045,
        "meta_eccentricity": 0.00842704,
        "meta_inclination": 99.024,
        "meta_ra_of_asc_node": 16.7164,
        "meta_arg_of_pericenter": 129.5369,
        "meta_mean_anomaly": 231.3279,
        "meta_ephemeris_type": 0,
        "meta_classification_type": "U",
        "meta_norad_cat_id": 37921,
        "meta_element_set_no": 999,
        "meta_rev_at_epoch": 62989,
        "meta_bstar": 0.00026819904,
        "meta_mean_motion_dot": 3.3e-06,
        "meta_mean_motion_ddot": 0,
        "tle_line1": "1 37921U 99025ENW 25335.39111213  .00000330  00000+0  26820-3 0  9992",
        "tle_line2": "2 37921  99.0240  16.7164 0084270 129.5369 231.3279 13.95144045629896"
      },
      "geometry": {
        "type": "Point",
        "coordinates": [
          45.99629355936211,
          -71.43656122041979
        ]
      }
    },
    {
      "type": "Feature",
      "properties": {
        "norad_id": 37925,
        "name": "FENGYUN 1C DEB",
        "group": "fengyun-1c-debris",
        "lat": 21.06018271781878,
        "lon": 27.79274783967037,
        "alt_km": 662.6780810473365,
        "timestamp": "2025-12-02T10:50:47.563901+00:00",
        "meta_object_name": "FENGYUN 1C DEB",
        "meta_object_id": "1999-025EPA",
        "meta_epoch": "2025-11-29T09:06:27.767520",
        "meta_mean_motion": 14.79724528,
        "meta_eccentricity": 0.00581267,
        "meta_inclination": 99.0878,
        "meta_ra_of_asc_node": 200.7871,
        "meta_arg_of_pericenter": 24.2327,
        "meta_mean_anomaly": 336.1595,
        "meta_ephemeris_type": 0,
        "meta_classification_type": "U",
        "meta_norad_cat_id": 37925,
        "meta_element_set_no": 999,
        "meta_rev_at_epoch": 65485,
        "meta_bstar": 0.0016156282,
        "meta_mean_motion_dot": 0.00012446,
        "meta_mean_motion_ddot": 0,
        "tle_line1": "1 37925U 99025EPA 25333.37948805  .00012446  00000+0  16156-2 0  9998",
        "tle_line2": "2 37925  99.0878 200.7871 0058126  24.2327 336.1595 14.79724528654855"
      },
      "geometry": {
        "type": "Point",
        "coordinates": [
          27.79274783967037,
          21.06018271781878
        ]
      }
    },
    {
      "type": "Feature",
      "properties": {
        "norad_id": 37926,
        "name": "FENGYUN 1C DEB",
        "group": "fengyun-1c-debris",
        "lat": -80.51323866089852,
        "lon": 106.48189869065543,
        "alt_km": 783.4505850160604,
        "timestamp": "2025-12-02T10:50:47.563911+00:00",
        "meta_object_name": "FENGYUN 1C DEB",
        "meta_object_id": "1999-025EPB",
        "meta_epoch": "2025-12-02T03:08:35.325024",
        "meta_mean_motion": 14.24095392,
        "meta_eccentricity": 0.0053386,
        "meta_inclination": 98.7254,
        "meta_ra_of_asc_node": 39.3797,
        "meta_arg_of_pericenter": 251.7953,
        "meta_mean_anomaly": 177.074,
        "meta_ephemeris_type": 0,
        "meta_classification_type": "U",
        "meta_norad_cat_id": 37926,
        "meta_element_set_no": 999,
        "meta_rev_at_epoch": 74119,
        "meta_bstar": 0.0018274,
        "meta_mean_motion_dot": 4.223e-05,
        "meta_mean_motion_ddot": 0,
        "tle_line1": "1 37926U 99025EPB 25336.13096441  .00004223  00000+0  18274-2 0  9993",
        "tle_line2": "2 37926  98.7254  39.3797 0053386 251.7953 177.0740 14.24095392741196"
      },
      "geometry": {
        "type": "Point",
        "coordinates": [
          106.48189869065543,
          -80.51323866089852
        ]
      }
    },
    {
      "type": "Feature",
      "properties": {
        "norad_id": 37927,
        "name": "FENGYUN 1C DEB",
        "group": "fengyun-1c-debris",
        "lat": -62.97651631192503,
        "lon": 136.99245752509773,
        "alt_km": 660.1547868440757,
        "timestamp": "2025-12-02T10:50:47.563921+00:00",
        "meta_object_name": "FENGYUN 1C DEB",
        "meta_object_id": "1999-025EPC",
        "meta_epoch": "2025-11-29T16:11:45.032064",
        "meta_mean_motion": 14.70717717,
        "meta_eccentricity": 0.00076239,
        "meta_inclination": 98.8072,
        "meta_ra_of_asc_node": 116.2969,
        "meta_arg_of_pericenter": 304.8102,
        "meta_mean_anomaly": 55.2384,
        "meta_ephemeris_type": 0,
        "meta_classification_type": "U",
        "meta_norad_cat_id": 37927,
        "meta_element_set_no": 999,
        "meta_rev_at_epoch": 64924,
        "meta_bstar": 0.0038923403,
        "meta_mean_motion_dot": 0.00023758,
        "meta_mean_motion_ddot": 0,
        "tle_line1": "1 37927U 99025EPC 25333.67482676  .00023758  00000+0  38923-2 0  9996",
        "tle_line2": "2 37927  98.8072 116.2969 0007623 304.8102  55.2384 14.70717717649248"
      },
      "geometry": {
        "type": "Point",
        "coordinates": [
          136.99245752509773,
          -62.97651631192503
        ]
      }
    },
    {
      "type": "Feature",
      "properties": {
        "norad_id": 37928,
        "name": "FENGYUN 1C DEB",
        "group": "fengyun-1c-debris",
        "lat": 60.402241073599185,
        "lon": -165.36682190367927,
        "alt_km": 709.9799575850157,
        "timestamp": "2025-12-02T10:50:47.563931+00:00",
        "meta_object_name": "FENGYUN 1C DEB",
        "meta_object_id": "1999-025EPD",
        "meta_epoch": "2025-11-28T09:38:34.088352",
        "meta_mean_motion": 14.37023237,
        "meta_eccentricity": 0.00733565,
        "meta_inclination": 98.9159,
        "meta_ra_of_asc_node": 206.4819,
        "meta_arg_of_pericenter": 74.7645,
        "meta_mean_anomaly": 286.1636,
        "meta_ephemeris_type": 0,
        "meta_classification_type": "U",
        "meta_norad_cat_id": 37928,
        "meta_element_set_no": 999,
        "meta_rev_at_epoch": 80986,
        "meta_bstar": 0.00065957038,
        "meta_mean_motion_dot": 1.971e-05,
        "meta_mean_motion_ddot": 0,
        "tle_line1": "1 37928U 99025EPD 25332.40178343  .00001971  00000+0  65957-3 0  9991",
        "tle_line2": "2 37928  98.9159 206.4819 0073356  74.7645 286.1636 14.37023237809864"
      },
      "geometry": {
        "type": "Point",
        "coordinates": [
          -165.36682190367927,
          60.402241073599185
        ]
      }
    },
    {
      "type": "Feature",
      "properties": {
        "norad_id": 38116,
        "name": "FENGYUN 1C DEB",
        "group": "fengyun-1c-debris",
        "lat": 74.17475303634315,
        "lon": -131.84901391301256,
        "alt_km": 812.6450609087606,
        "timestamp": "2025-12-02T10:50:47.563942+00:00",
        "meta_object_name": "FENGYUN 1C DEB",
        "meta_object_id": "1999-025EPM",
        "meta_epoch": "2025-11-28T20:45:55.302624",
        "meta_mean_motion": 14.16973073,
        "meta_eccentricity": 0.0072,
        "meta_inclination": 98.7141,
        "meta_ra_of_asc_node": 11.879,
        "meta_arg_of_pericenter": 186.1596,
        "meta_mean_anomaly": 351.8835,
        "meta_ephemeris_type": 0,
        "meta_classification_type": "U",
        "meta_norad_cat_id": 38116,
        "meta_element_set_no": 999,
        "meta_rev_at_epoch": 64288,
        "meta_bstar": 0.00050837388,
        "meta_mean_motion_dot": 1.004e-05,
        "meta_mean_motion_ddot": 0,
        "tle_line1": "1 38116U 99025EPM 25332.86522341  .00001004  00000+0  50837-3 0  9990",
        "tle_line2": "2 38116  98.7141  11.8790 0072000 186.1596 351.8835 14.16973073642884"
      },
      "geometry": {
        "type": "Point",
        "coordinates": [
          -131.84901391301256,
          74.17475303634315
        ]
      }
    },
    {
      "type": "Feature",
      "properties": {
        "norad_id": 38121,
        "name": "FENGYUN 1C DEB",
        "group": "fengyun-1c-debris",
        "lat": -22.808478266555223,
        "lon": -56.288647323156724,
        "alt_km": 720.0544413120651,
        "timestamp": "2025-12-02T10:50:47.563952+00:00",
        "meta_object_name": "FENGYUN 1C DEB",
        "meta_object_id": "1999-025EPS",
        "meta_epoch": "2025-11-29T04:12:17.244576",
        "meta_mean_motion": 14.2162433,
        "meta_eccentricity": 0.02065546,
        "meta_inclination": 99.115,
        "meta_ra_of_asc_node": 124.1974,
        "meta_arg_of_pericenter": 166.4816,
        "meta_mean_anomaly": 194.2011,
        "meta_ephemeris_type": 0,
        "meta_classification_type": "U",
        "meta_norad_cat_id": 38121,
        "meta_element_set_no": 999,
        "meta_rev_at_epoch": 83727,
        "meta_bstar": 0.001349076,
        "meta_mean_motion_dot": 3.628e-05,
        "meta_mean_motion_ddot": 0,
        "tle_line1": "1 38121U 99025EPS 25333.17519959  .00003628  00000+0  13491-2 0  9990",
        "tle_line2": "2 38121  99.1150 124.1974 0206554 166.4816 194.2011 14.21624330837275"
      },
      "geometry": {
        "type": "Point",
        "coordinates": [
          -56.288647323156724,
          -22.808478266555223
        ]
      }
    }
  ]
}